#cP2022  3 16 12  0  0.00000000     576 d+D   IGb14 EXT AIUB
## 2201 302400.00000000   300.00000000 59654 0.5000000000000
+   76   G01G02G03G04G05G06G07G08G09G10G11G12G13G14G15G16G17
+        G18G19G20G21G22G23G24G25G26G27G28G29G30G31G32R01R02
+        R03R04R05R07R08R09R12R13R14R15R17R18R19R20R21R22R24
+        E01E02E03E04E05E07E08E10E11E12E13E14E15E18E19E21E24
+        E25E26E27E30E31E33E34E36  0  0  0  0  0  0  0  0  0
++         6  7  6  8  7  7  7  6  6  5  8  7  9  7  7  7  7
++         8  7  7  7  7  7  7  6  6  6  7  7  5  7  6  8  7
++         8  8  7  7  7  7  6  8  7  7  8  7  9  9  8  8  8
++         6  6  7  7  7  6  6  7  7  7  7  6  6  7  7  5  6
++         5  7  5  6  6  7  7  7  0  0  0  0  0  0  0  0  0
%c M  cc GPS ccc cccc cccc cccc cccc ccccc ccccc ccccc ccccc
%c cc cc ccc ccc cccc cccc cccc cccc ccccc ccccc ccccc ccccc
%f  1.2500000  1.025000000  0.00000000000  0.000000000000000
%f  0.0000000  0.000000000  0.00000000000  0.000000000000000
%i    0    0    0    0      0      0      0      0         0
%i    0    0    0    0      0      0      0      0         0
/* Center for Orbit Determination in Europe (CODE)          
/* Ultra-rapid GRE orbits starting year-day 22075 12 hour   
/* Observed/predicted: 23/25 hours (data used up to 076K)   
/* PCV:IGS14      OL/AL:FES2014b NONE     YN ORB:CoN CLK:BRD
*  2022  3 17  3 25  0.00000000
PG01   3212.104761  14411.337441 -22358.434906    407.115738
PG02  17969.303288 -15444.328729  12796.229462   -652.334644
PG03  10772.441675  21767.463578 -10985.185366   -166.907105
PG04    893.240547  23838.212719  11597.072489   -183.093416
PG05   3572.138775 -16333.247298  20441.354001    -74.943500
PG06  26000.473986  -5347.004656  -1711.127408    233.945126
PG07  19376.764453   7745.141131  17097.017331    316.381998
PG08  -5519.265965  25734.010313  -1614.620166    -60.139311
PG09   9604.349114  15991.755571  18826.864444   -349.344494
PG10 -21224.936117  -8217.964935 -13783.621320   -349.257959
PG11  19804.201936 -12663.251105  12352.043828    -61.640803
PG12  -6412.808989 -22095.426191 -13648.909895   -186.036109
PG13  13218.966376 -22417.897048   4691.722787    278.147741
PG14  21084.780784   9333.460827 -13253.397033    -94.563162
PG15   1947.816272 -26220.884111  -2625.806839    -76.206693
PG16  -8882.040945  12381.014041  21433.374107   -481.513941
PG17  15300.672572   -494.379017 -21283.427276    588.202635
PG18 -18981.458153  -7524.297462  17037.583063    218.084606
PG19  16960.353975  -7906.570044 -19033.518987    132.017669
PG20  11909.921086 -10445.399179  21300.206002    516.265868
PG21  -7921.839810  16363.396366 -18458.390276    159.476423
PG22 -16686.898123  11549.031335 -16632.252170    228.687423
PG23 -20713.523645 -16217.428598  -4031.645541     -7.443066
PG24    654.131787 -16577.172455 -20970.701831    267.312469
PG25 -17208.034085 -20273.980100  -2824.150314    299.346296
PG26 -17881.343378   2909.807908  19434.267104    191.396605
PG27 -12402.770146  21326.448276   9085.128150    156.422014
PG28  18153.225375   2042.181844 -18680.736514    378.810736
PG29  -6499.175320 -17989.936565  18354.554162   -492.246730
PG30  24535.535913   2047.977399  10350.890171   -519.100303
PG31 -26027.833496   6420.405018    608.308292   -169.262605
PG32 -16117.798734   4511.809751 -20441.043115    -86.285608
PR01   6568.759947 -14898.800177  19636.364039      7.265198
PR02  -2878.558548 -25184.550761   3180.083689    512.742304
PR03 -10062.173577 -19027.329225 -13684.596949     53.231580
PR04 -11231.601252  -2397.810587 -22745.270690    132.279905
PR05  -6391.148378  15512.785183 -19189.365037     89.501031
PR07  10270.792901  18374.805172  14415.134260     32.737801
PR08  11369.325446   2153.823095  22790.431626    -64.037790
PR09   5431.169212  12943.399706  21327.820750     44.757438
PR12  13221.197972  -5985.066398 -20951.442536     17.464442
PR13  -4148.784015 -12480.793401 -21877.142487    -19.554723
PR14 -20478.276969 -11936.154454  -9403.776634     75.461013
PR15 -23835.439613  -4346.070406   7995.156467     97.497366
PR17  -8496.598267  -6571.900789  23146.472390    510.166995
PR18 -18962.474585   6559.633131  15727.510779    110.521308
PR19 -20330.974966  15364.711793   1067.747324   -181.858013
PR20  -8405.326902  16449.552326 -17556.708806    -66.865490
PR21   9564.585265   5485.625547 -22999.567091   -285.897375
PR22  19384.876140  -7221.928145 -15010.058611   -171.053692
PR24   7209.598501 -16728.320892  17870.702365     84.726315
PE01 -17490.014008 -22013.858333  -9277.940371   -598.247835
PE02  17597.427478  21965.073850   9124.468142    286.739769
PE03   7485.649987  24128.700472  15435.971604   -538.157673
PE04 -16334.760433  -5523.200969 -24050.761946   -986.173377
PE05  -5938.299898  28896.821719  -2424.388794   -199.670693
PE07  15727.940956 -16780.819464  18637.475822   -649.091729
PE08  16304.336661   5021.823521  24193.809158   -496.407015
PE10 -28033.559974   7101.282494   6301.935587   -500.961503
PE11 -26080.871662  13382.971259  -4024.874595   4210.630871
PE12 -25491.568917   -216.596127  15024.527065   4709.795112
PE13  26342.278432 -13093.984390   3359.482676    427.338286
PE14  17521.401939  11120.113926 -24397.402583  -1780.856872
PE15  25425.401094    193.322725 -15157.605484    757.341769
PE18 -16619.498178   1960.543895  18017.233041  -1675.287569
PE19  -5800.486642 -25639.964621 -13602.223105  -1441.847707
PE21   -590.418625 -19670.080100 -22119.803433   -722.972583
PE24 -18638.485605   4768.241835  22485.389070   -509.513686
PE25    314.119656  19542.839413  22225.883668   -567.064038
PE26  10775.283134 -18684.884550  20280.653056   -921.118322
PE27  17672.523966  -5947.062565 -22987.303722   -254.863185
PE30  25346.346508  12047.256813  -9395.572231   -354.666321
PE31 -25399.446679 -11173.311073  10320.361946   -493.644126
PE33  -9498.707543 -13327.409620  24669.985662   -458.500220
PE34   9755.248277  13196.610205 -24636.904787   -507.150261
PE36 -11774.993061  18597.529722 -19776.814916   -346.360838
EOF
